NORAD_CAT_ID,OBJECT_NAME,OBJECT_TYPE,EPOCH,MEAN_MOTION,ECCENTRICITY,INCLINATION,RA_OF_ASC_NODE,ARG_OF_PERICENTER,MEAN_ANOMALY,BSTAR,MEAN_MOTION_DOT,MEAN_MOTION_DDOT,TLE_LINE0,TLE_LINE1,TLE_LINE2,SEMIMAJOR_AXIS,PERIOD,APOGEE,PERIGEE,DECAYED
51986.0,STARLINK-3645,PAYLOAD,2022-08-12 20:00:01,15.08858521,0.0001799,53.2187,136.8484,59.5476,281.9451,-0.00034249,-5.738e-05,0.0,0 STARLINK-3645,1 51986U 22025AG  22224.83335648 -.00005738  00000-0 -34249-3 0  9992,2 51986  53.2187 136.8484 0001799  59.5476 281.9451 15.08858521 25160,6917.824000000001,95.436,540.933,538.444,0.0
51986.0,STARLINK-3645,PAYLOAD,2022-08-12 22:00:01,15.08869462,0.0001834,53.2186,136.4749,57.1282,17.2654,-0.0021680999999999,-0.00034656,0.0,0 STARLINK-3645,1 51986U 22025AG  22224.91668981 -.00034656  00000-0 -21681-2 0  9996,2 51986  53.2186 136.4749 0001834  57.1282  17.2654 15.08869462  1309,6917.79,95.436,540.924,538.387,0.0
51986.0,STARLINK-3645,PAYLOAD,2022-08-13 14:00:01,15.08790855,0.0001588,53.2186,133.4815,55.4053,42.1391,0.0021983,0.00034824,0.0,0 STARLINK-3645,1 51986U 22025AG  22225.58334491  .00034824  00000-0  21983-2 0  9996,2 51986  53.2186 133.4815 0001588  55.4053  42.1391 15.08790855  1307,6918.031,95.441,540.994,538.797,0.0
51986.0,STARLINK-3645,PAYLOAD,2022-08-13 22:00:00,15.08829311,0.0001694,53.2186,131.9862,54.7067,54.3857,-0.0014782,-0.0002373,0.0,0 STARLINK-3645,1 51986U 22025AG  22225.91667824 -.00023730  00000-0 -14782-2 0  9997,2 51986  53.2186 131.9862 0001694  54.7067  54.3857 15.08829311  1309,6917.913000000001,95.438,540.95,538.606,0.0
51986.0,STARLINK-3645,PAYLOAD,2022-08-14 04:00:00,15.08798155,0.0001816,53.2182,130.8632,50.4517,337.327,0.0029192,0.00046424,0.0,0 STARLINK-3645,1 51986U 22025AG  22226.16667824  .00046424  00000-0  29192-2 0  9999,2 51986  53.2182 130.8632 0001816  50.4517 337.3270 15.08798155 25363,6918.0080000000025,95.44,541.13,538.617,0.0
51986.0,STARLINK-3645,PAYLOAD,2022-08-14 14:00:01,15.08808117,0.0001594,53.2182,128.9926,57.0701,75.1775,0.0029776,0.00047378,0.0,0 STARLINK-3645,1 51986U 22025AG  22226.58334491  .00047378  00000-0  29776-2 0  9993,2 51986  53.2182 128.9926 0001594  57.0701  75.1775 15.08808117  1303,6917.978,95.44,540.946,538.74,0.0
51986.0,STARLINK-3645,PAYLOAD,2022-08-14 20:00:01,15.08852031,0.0001665,53.2184,127.8711,58.0695,352.8514,-0.0010708,-0.00017295,0.0,0 STARLINK-3645,1 51986U 22025AG  22226.83334491 -.00017295  00000-0 -10708-2 0  9993,2 51986  53.2184 127.8711 0001665  58.0695 352.8514 15.08852031 25460,6917.844,95.437,540.86,538.557,0.0
51986.0,STARLINK-3645,PAYLOAD,2022-08-14 22:00:00,15.08850995,0.0001710999999999,53.2182,127.4974,56.0714,87.751,-0.001356,-0.00021811,0.0,0 STARLINK-3645,1 51986U 22025AG  22226.91667824 -.00021811  00000-0 -13560-2 0  9999,2 51986  53.2182 127.4974 0001711  56.0714  87.7510 15.08850995  1301,6917.847,95.437,540.895,538.528,0.0
51986.0,STARLINK-3645,PAYLOAD,2022-08-15 14:00:01,15.08833145,0.0001645,53.2176,124.5035,60.0188,107.0085,0.00212,0.00033607,0.0,0 STARLINK-3645,1 51986U 22025AG  22227.58334491  .00033607  00000-0  21200-2 0  9998,2 51986  53.2176 124.5035 0001645  60.0188 107.0085 15.08833145 25583,6917.901,95.438,540.904,538.628,0.0
51986.0,STARLINK-3645,PAYLOAD,2022-08-15 22:00:00,15.08856612,0.0001811999999999,53.2175,123.0084,59.3777,119.2516,-0.0029599,-0.00047109,0.0,0 STARLINK-3645,1 51986U 22025AG  22227.91667824 -.00047109  00000-0 -29599-2 0  9997,2 51986  53.2175 123.0084 0001812  59.3777 119.2516 15.08856612  1303,6917.83,95.437,540.948,538.441,0.0
51986.0,STARLINK-3645,PAYLOAD,2022-08-16 04:00:01,15.08811538,0.0001894,53.2172,121.8868,56.2852,41.1122,0.0030927,0.00049238,0.0,0 STARLINK-3645,1 51986U 22025AG  22228.16668981  .00049238  00000-0  30927-2 0  9990,2 51986  53.2172 121.8868 0001894  56.2852  41.1122 15.08811538 25665,6917.967,95.439,541.143,538.5219999999998,0.0
51986.0,STARLINK-3645,PAYLOAD,2022-08-16 14:00:01,15.08821291,0.0001769,53.2169,120.0143,64.071,137.7523,0.0028729,0.00045708,0.0,0 STARLINK-3645,1 51986U 22025AG  22228.58334491  .00045708  00000-0  28729-2 0  9997,2 51986  53.2169 120.0143 0001769  64.0710 137.7523 15.08821291  1308,6917.938,95.439,541.026,538.5790000000002,0.0
51986.0,STARLINK-3645,PAYLOAD,2022-08-16 22:00:00,15.08860301,0.0001874,53.2169,118.5194,61.3166,152.0995,-0.0013467,-0.00021669,0.0,0 STARLINK-3645,1 51986U 22025AG  22228.91667824 -.00021669  00000-0 -13467-2 0  9998,2 51986  53.2169 118.5194 0001874  61.3166 152.0995 15.08860301 25784,6917.818,95.436,540.98,538.387,0.0
51986.0,STARLINK-3645,PAYLOAD,2022-08-17 16:00:00,15.08826571,0.0001761999999999,53.2169,115.1509,65.2387,264.2775,0.0021014,0.00033302,0.0,0 STARLINK-3645,1 51986U 22025AG  22229.66667824  .00033302  00000-0  21014-2 0  9993,2 51986  53.2169 115.1509 0001762  65.2387 264.2775 15.08826571 25896,6917.920999999999,95.438,541.005,538.567,0.0
51986.0,STARLINK-3645,PAYLOAD,2022-08-18 14:00:01,15.08819129,0.0001693,53.2169,111.0356,62.342,209.0955,0.0032367,0.00051572,0.0,0 STARLINK-3645,1 51986U 22025AG  22230.58334491  .00051572  00000-0  32367-2 0  9999,2 51986  53.2169 111.0356 0001693  62.3420 209.0955 15.08819129  1308,6917.944,95.439,540.98,538.638,0.0
51986.0,STARLINK-3645,PAYLOAD,2022-08-18 22:00:00,15.088571300000002,0.0001799,53.2171,109.5409,57.9839,225.0464,-0.00074819,-0.00012182,0.0,0 STARLINK-3645,1 51986U 22025AG  22230.91667824 -.00012182  00000-0 -74819-3 0  9990,2 51986  53.2171 109.5409 0001799  57.9839 225.0464 15.08857130 26082,6917.828,95.436,540.938,538.4490000000002,0.0
51986.0,STARLINK-3645,PAYLOAD,2022-08-19 14:00:01,15.08790826,0.0001511,53.2175,106.5465,58.0222,248.2226,0.0027116999999999,0.00043075,0.0,0 STARLINK-3645,1 51986U 22025AG  22231.58334491  .00043075  00000-0  27117-2 0  9996,2 51986  53.2175 106.5465 0001511  58.0222 248.2226 15.08790826  1304,6918.031,95.441,540.941,538.85,0.0
51986.0,STARLINK-3645,PAYLOAD,2022-08-19 22:00:00,15.08815195,0.0001683,53.2177,105.0519,53.067,264.7284,-0.0004165,-6.906e-05,0.0,0 STARLINK-3645,1 51986U 22025AG  22231.91667824 -.00006906  00000-0 -41650-3 0  9995,2 51986  53.2177 105.0519 0001683  53.0670 264.7284 15.08815195 26235,6917.956,95.439,540.986,538.6569999999998,0.0
51986.0,STARLINK-3645,PAYLOAD,2022-08-20 14:00:01,15.08810163,0.0001575,53.2182,102.0578,59.2518,281.6824,0.0030019,0.00047772,0.0,0 STARLINK-3645,1 51986U 22025AG  22232.58334491  .00047772  00000-0  30019-2 0  9990,2 51986  53.2182 102.0578 0001575  59.2518 281.6824 15.08810163 26331,6917.972,95.439,540.9259999999998,538.747,0.0
51986.0,STARLINK-3645,PAYLOAD,2022-08-20 22:00:00,15.08837534,0.0001738,53.2183,100.5633,53.8285,298.6836,-0.00042757,-7.086e-05,0.0,0 STARLINK-3645,1 51986U 22025AG  22232.91667824 -.00007086  00000-0 -42757-3 0  9995,2 51986  53.2183 100.5633 0001738  53.8285 298.6836 15.08837534  1301,6917.888000000001,95.438,540.955,538.5509999999998,0.0
51986.0,STARLINK-3645,PAYLOAD,2022-08-21 04:00:00,15.08837005,0.0001709,53.2182,99.4411,51.2916,219.9066,0.00043889,6.703e-05,0.0,0 STARLINK-3645,1 51986U 22025AG  22233.16667824  .00006703  00000-0  43889-3 0  9993,2 51986  53.2182  99.4411 0001709  51.2916 219.9066 15.08837005 26425,6917.89,95.438,540.937,538.572,0.0
51986.0,STARLINK-3645,PAYLOAD,2022-08-21 14:00:01,15.08818871,0.0001519,53.2186,97.5691,59.5155,316.1817,0.00090821,0.00014187,0.0,0 STARLINK-3645,1 51986U 22025AG  22233.58334491  .00014187  00000-0  90821-3 0  9993,2 51986  53.2186  97.5691 0001519  59.5155 316.1817 15.08818871  1307,6917.945,95.439,540.861,538.759,0.0
51986.0,STARLINK-3645,PAYLOAD,2022-08-21 20:00:01,15.08830146,0.0001592,53.2186,96.4483,54.1752,240.2021,-0.0012433,-0.00020015,0.0,0 STARLINK-3645,1 51986U 22025AG  22233.83334491 -.00020015  00000-0 -12433-2 0  9992,2 51986  53.2186  96.4483 0001592  54.1752 240.2021 15.08830146 26523,6917.911,95.438,540.877,538.674,0.0
51986.0,STARLINK-3645,PAYLOAD,2022-08-21 22:00:00,15.08823378,0.0001655,53.2186,96.0746,52.8318,334.441,-0.0005091,-8.378e-05,0.0,0 STARLINK-3645,1 51986U 22025AG  22233.91667824 -.00008378  00000-0 -50910-3 0  9991,2 51986  53.2186  96.0746 0001655  52.8318 334.4410 15.08823378  1300,6917.931,95.439,540.941,538.651,0.0
51986.0,STARLINK-3645,PAYLOAD,2022-08-22 12:00:00,15.08804907,0.0001475,53.2184,93.4545,59.4458,258.0927,0.0031344999999999,0.00049903,0.0,0 STARLINK-3645,1 51986U 22025AG  22234.50001157  .00049903  00000-0  31345-2 0  9995,2 51986  53.2184  93.4545 0001475  59.4458 258.0927 15.08804907  1305,6917.988,95.44,540.873,538.832,0.0
51986.0,STARLINK-3645,PAYLOAD,2022-08-22 22:00:00,15.08834358,0.0001651,53.2184,91.5861,54.6711,7.3411,-0.00034781,-5.818e-05,0.0,0 STARLINK-3645,1 51986U 22025AG  22234.91667824 -.00005818  00000-0 -34781-3 0  9996,2 51986  53.2184  91.5861 0001651  54.6711   7.3411 15.08834358  1306,6917.898,95.438,540.905,538.62,0.0
51986.0,STARLINK-3645,PAYLOAD,2022-08-23 04:00:00,15.0884473,0.0001609,53.2179,90.4635,52.5925,288.1046,-0.00083046,-0.00013482,0.0,0 STARLINK-3645,1 51986U 22025AG  22235.16667824 -.00013482  00000-0 -83046-3 0  9998,2 51986  53.2179  90.4635 0001609  52.5925 288.1046 15.08844730 26725,6917.866,95.437,540.844,538.618,0.0
51986.0,STARLINK-3645,PAYLOAD,2022-08-23 14:00:01,15.08833342,0.0001521999999999,53.2182,88.5918,63.313,21.8752,0.0014192999999999,0.00022368,0.0,0 STARLINK-3645,1 51986U 22025AG  22235.58334491  .00022368  00000-0  14193-2 0  9992,2 51986  53.2182  88.5918 0001522  63.3130  21.8752 15.08833342  1303,6917.901,95.438,540.819,538.7130000000002,0.0
51986.0,STARLINK-3645,PAYLOAD,2022-08-23 22:00:01,15.08838837,0.0001663,53.2179,87.0973,56.6779,40.1719,-1.4730999999999992e-05,-5.22e-06,0.0,0 STARLINK-3645,1 51986U 22025AG  22235.91668981 -.00000522  00000-0 -14731-4 0  9993,2 51986  53.2179  87.0973 0001663  56.6779  40.1719 15.08838837  1305,6917.884,95.438,540.899,538.5980000000002,0.0
